{
  "norad_id": 65695,
  "name": "STARLINK-35221",
  "history": [
    {
      "epoch": "2026-03-28T21:08:26.646144",
      "apogee_km": 475.6476820467751,
      "perigee_km": 474.6854782241244,
      "latitude_deg": 44.86816214837889,
      "longitude_deg": 114.06294015981257,
      "semi_major_axis_km": 6853.30358013545,
      "eccentricity": 7.02e-05,
      "inclination_deg": 53.1573,
      "raan_deg": 256.4029,
      "arg_perigee_deg": 52.9983,
      "mean_anomaly_deg": 307.1082,
      "mean_motion_rev_day": 15.3021624
    }
  ]
}